QIANFAN-49              
1 62250U 24232P   25270.62789620  .00000143  00000+0  20263-3 0  9997
2 62250  88.9993  48.9028 0015561  59.8598 300.4093 13.50973740 57567
QIANFAN-50              
1 62251U 24232Q   25270.57853898  .00000158  00000+0  22615-3 0  9990
2 62251  88.9998  48.9118 0017247  60.7760 299.5114 13.50968863 57582
QIANFAN-51              
1 62252U 24232R   25270.63610330  .00000154  00000+0  21920-3 0  9994
2 62252  88.9992  48.9045 0014815  64.6651 295.6033 13.50971247 57583
QIANFAN-52              
1 62253U 24232S   25270.59083439  .00000151  00000+0  21481-3 0  9993
2 62253  88.9988  48.7856 0016671  57.1582 303.1172 13.50973778 57668
QIANFAN-53              
1 62254U 24232T   25270.57029065  .00000160  00000+0  22883-3 0  9994
2 62254  88.9996  48.8865 0015580  58.5477 301.7195 13.50969623 57624
QIANFAN-54              
1 62255U 24232U   25270.61139130  .00000143  00000+0  20246-3 0  9997
2 62255  88.9988  48.5674 0003931  97.1778 262.9820 13.50971661 89130
QIANFAN-55              
1 62785U 25016A   25270.63732735  .00000045  00000+0  50951-4 0  9996
2 62785  88.9755 111.0732 0016360 203.4740 156.5666 13.50965477 36914
QIANFAN-56              
1 62786U 25016B   25270.57983913  .00000048  00000+0  56447-4 0  9995
2 62786  88.9728 110.9361 0014962 205.7380 154.3028 13.50973531 36954
